GLOBALSTAR M084         
1 38040U 11080A   25256.84032666 -.00000098  00000+0  34264-4 0  9990
2 38040  52.0000 138.5829 0000436  89.1864 348.4276 12.62268904633869
GLOBALSTAR M080         
1 38041U 11080B   25256.95609558 -.00000100  00000+0  20171-4 0  9999
2 38041  52.0052 139.8539 0000996  46.5527 326.6347 12.62268908634001
GLOBALSTAR M082         
1 38042U 11080C   25256.81300294 -.00000105  00000+0 -90019-5 0  9995
2 38042  52.0065  95.7580 0001085  62.7842 310.7246 12.62268614634693
GLOBALSTAR M092         
1 38043U 11080D   25256.95898682 -.00000086  00000+0  10047-3 0  9992
2 38043  52.0077 185.6963 0000502  60.6096  15.7749 12.62265816633164
GLOBALSTAR M090         
1 38044U 11080E   25256.85931725 -.00000112  00000+0 -47282-4 0  9991
2 38044  52.0114  89.4830 0000974  82.8509  20.9804 12.62262401634819
GLOBALSTAR M086         
1 38045U 11080F   25256.86544413 -.00000110  00000+0 -33552-4 0  9990
2 38045  51.9887  89.8435 0001430 128.5482 247.4011 12.62276885634767
GLOBALSTAR M097         
1 39072U 13005A   25256.49321760 -.00000108  00000+0 -22977-4 0  9993
2 39072  52.0073   5.6174 0000820 103.8519 256.2439 12.62265684581962
GLOBALSTAR M093         
1 39073U 13005B   25256.46716944 -.00000100  00000+0  22097-4 0  9997
2 39073  52.0136 358.9388 0001029 101.8683 258.2300 12.62264179581918
